NORAD_CAT_ID,OBJECT_NAME,OBJECT_TYPE,EPOCH,MEAN_MOTION,ECCENTRICITY,INCLINATION,RA_OF_ASC_NODE,ARG_OF_PERICENTER,MEAN_ANOMALY,BSTAR,MEAN_MOTION_DOT,MEAN_MOTION_DDOT,TLE_LINE0,TLE_LINE1,TLE_LINE2,SEMIMAJOR_AXIS,PERIOD,APOGEE,PERIGEE,DECAYED
52105.0,STARLINK-3706,PAYLOAD,2023-11-02 11:46:51,15.08862702,0.0001632,53.2159,331.7255,83.5359,276.5819,0.00056119,8.66e-05,0.0,0 STARLINK-3706,1 52105U 22029T   23306.49087422  .00008660  00000-0  56119-3 0  9993,2 52105  53.2159 331.7255 0001632  83.5359 276.5819 15.08862702 91222,6917.811,95.436,540.805,538.547,0.0
52105.0,STARLINK-3706,PAYLOAD,2023-11-03 05:16:06,15.08848871,0.0002188,53.2159,328.4502,118.1754,241.9459,3.9009e-05,3.33e-06,0.0,0 STARLINK-3706,1 52105U 22029T   23307.21951556  .00000333  00000-0  39009-4 0  9991,2 52105  53.2159 328.4502 0002188 118.1754 241.9459 15.08848871 91330,6917.853,95.437,541.232,538.205,0.0
52105.0,STARLINK-3706,PAYLOAD,2023-11-03 08:26:52,15.08846498,0.0001684,53.217,327.8614,93.5259,266.5926,5.5968e-05,6.03e-06,0.0,0 STARLINK-3706,1 52105U 22029T   23307.35199507  .00000603  00000-0  55968-4 0  9998,2 52105  53.2170 327.8614 0001684  93.5259 266.5926 15.08846498 91353,6917.861,95.437,540.89,538.561,0.0
52105.0,STARLINK-3706,PAYLOAD,2023-11-03 17:59:11,15.08839661,0.0001708,53.2167,326.0773,95.1553,264.9634,-1.9217e-06,-3.19e-06,0.0,0 STARLINK-3706,1 52105U 22029T   23307.74943683 -.00000319  00000-0 -19217-5 0  9997,2 52105  53.2167 326.0773 0001708  95.1553 264.9634 15.08839661 91417,6917.881,95.438,540.928,538.565,0.0
52105.0,STARLINK-3706,PAYLOAD,2023-11-04 08:17:39,15.08842152,0.0001849,53.2175,323.4038,101.9994,258.1205,-5.8878e-05,-1.225e-05,0.0,0 STARLINK-3706,1 52105U 22029T   23308.34559967 -.00001225  00000-0 -58878-4 0  9994,2 52105  53.2175 323.4038 0001849 101.9994 258.1205 15.08842152 91500,6917.874,95.437,541.018,538.46,0.0
52105.0,STARLINK-3706,PAYLOAD,2023-11-04 17:49:58,15.08840394,0.0001861,53.218,321.6203,107.4574,252.6621,2.0236e-05,3.4e-07,0.0,0 STARLINK-3706,1 52105U 22029T   23308.74304068  .00000034  00000-0  20236-4 0  9990,2 52105  53.2180 321.6203 0001861 107.4574 252.6621 15.08840394 91562,6917.879,95.438,541.032,538.457,0.0
52105.0,STARLINK-3706,PAYLOAD,2023-11-05 04:57:40,15.08842846,0.0001702,53.2181,319.5372,95.3299,264.7888,0.00021181,3.085e-05,0.0,0 STARLINK-3706,1 52105U 22029T   23309.20672088  .00003085  00000-0  21181-3 0  9990,2 52105  53.2181 319.5372 0001702  95.3299 264.7888 15.08842846 91630,6917.872,95.437,540.914,538.559,0.0
52105.0,STARLINK-3706,PAYLOAD,2023-11-05 11:19:12,15.08854841,0.0001777,53.2175,318.3476,98.3614,261.7579,0.00048431,7.431e-05,0.0,0 STARLINK-3706,1 52105U 22029T   23309.47167691  .00007431  00000-0  48431-3 0  9994,2 52105  53.2175 318.3476 0001777  98.3614 261.7579 15.08854841 91677,6917.835,95.437,540.929,538.471,0.0
52105.0,STARLINK-3706,PAYLOAD,2023-11-05 17:40:45,15.08842617,0.0001886,53.2162,317.1522,91.2069,268.9139,0.00017961,2.572e-05,0.0,0 STARLINK-3706,1 52105U 22029T   23309.73663963  .00002572  00000-0  17961-3 0  9991,2 52105  53.2162 317.1522 0001886  91.2069 268.9139 15.08842617 91713,6917.872,95.437,541.042,538.433,0.0
52105.0,STARLINK-3706,PAYLOAD,2023-11-06 09:34:35,15.08887072,0.0001951,53.217,314.1785,94.6509,265.4706,0.0014576,0.00023016,0.0,0 STARLINK-3706,1 52105U 22029T   23310.39902546  .00023016  00000-0  14576-2 0  9992,2 52105  53.2170 314.1785 0001951  94.6509 265.4706 15.08887072 91816,6917.737,95.435,540.951,538.252,0.0
52105.0,STARLINK-3706,PAYLOAD,2023-11-06 17:31:32,15.08846791,0.0003534,53.2163,312.6968,78.6858,281.4531,0.00046224,7.077e-05,0.0,0 STARLINK-3706,1 52105U 22029T   23310.73023778  .00007077  00000-0  46224-3 0  9996,2 52105  53.2163 312.6968 0003534  78.6858 281.4531 15.08846791 91864,6917.86,95.437,542.169,537.28,0.0
52105.0,STARLINK-3706,PAYLOAD,2023-11-07 09:25:25,15.08790147,0.0001246,53.2161,309.7218,83.451,276.6624,0.0017733,0.00028008,0.0,0 STARLINK-3706,1 52105U 22029T   23311.39265506  .00028008  00000-0  17733-2 0  9995,2 52105  53.2161 309.7218 0001246  83.4510 276.6624 15.08790147 91967,6918.033,95.441,540.76,539.036,0.0
52105.0,STARLINK-3706,PAYLOAD,2023-11-08 06:05:26,15.08847872,0.0001155,53.2162,305.8564,86.6603,273.4521,0.0019762,0.0003131,0.0,0 STARLINK-3706,1 52105U 22029T   23312.25378451  .00031310  00000-0  19762-2 0  9999,2 52105  53.2162 305.8564 0001155  86.6603 273.4521 15.08847872 92090,6917.856,95.437,540.52,538.922,0.0
52105.0,STARLINK-3706,PAYLOAD,2023-11-08 17:13:08,15.08872478,0.000108,53.2162,303.7748,87.1096,273.0019,0.0019766,0.00031338,0.0,0 STARLINK-3706,1 52105U 22029T   23312.71745839  .00031338  00000-0  19766-2 0  9992,2 52105  53.2162 303.7748 0001080  87.1096 273.0019 15.08872478 92166,6917.781,95.436,540.393,538.899,0.0
52105.0,STARLINK-3706,PAYLOAD,2023-11-09 04:20:49,15.08878616,0.0001358,53.217,301.6967,66.2002,293.9132,0.0016437,0.00025996,0.0,0 STARLINK-3706,1 52105U 22029T   23313.18113091  .00025996  00000-0  16437-2 0  9998,2 52105  53.2170 301.6967 0001358  66.2002 293.9132 15.08878616 92233,6917.762,95.435,540.567,538.688,0.0
52105.0,STARLINK-3706,PAYLOAD,2023-11-09 09:06:58,15.0889891,0.0001439,53.2167,300.8012,90.5727,269.5431,0.0017849,0.00028279,0.0,0 STARLINK-3706,1 52105U 22029T   23313.37984245  .00028279  00000-0  17849-2 0  9991,2 52105  53.2167 300.8012 0001439  90.5727 269.5431 15.08898910 92268,6917.7,95.434,540.561,538.57,0.0
52105.0,STARLINK-3706,PAYLOAD,2023-11-10 04:11:36,15.08841054,0.000103,53.2167,297.2369,85.5126,274.5984,0.00095236,0.00014902,0.0,0 STARLINK-3706,1 52105U 22029T   23314.17472763  .00014902  00000-0  95236-3 0  9992,2 52105  53.2167 297.2369 0001030  85.5126 274.5984 15.08841054 92385,6917.877,95.437,540.455,539.03,0.0
52105.0,STARLINK-3706,PAYLOAD,2023-11-11 04:02:23,15.0884101,0.000108,53.216,292.7732,91.9997,268.1119,0.00035731,5.403e-05,0.0,0 STARLINK-3706,1 52105U 22029T   23315.16832969  .00005403  00000-0  35731-3 0  9990,2 52105  53.2160 292.7732 0001080  91.9997 268.1119 15.08841010 92532,6917.877,95.437,540.489,538.995,0.0
52105.0,STARLINK-3706,PAYLOAD,2023-11-11 08:48:32,15.08846207,0.0001123,53.2157,291.8792,96.2643,263.8477,0.00043618,6.662e-05,0.0,0 STARLINK-3706,1 52105U 22029T   23315.36704811  .00006662  00000-0  43618-3 0  9997,2 52105  53.2157 291.8792 0001123  96.2643 263.8477 15.08846207 92563,6917.861,95.437,540.503,538.95,0.0
52105.0,STARLINK-3706,PAYLOAD,2023-11-11 15:10:05,15.08842455,0.0001169,53.2157,290.6883,96.2367,263.8758,0.00043225,6.599e-05,0.0,0 STARLINK-3706,1 52105U 22029T   23315.63200916  .00006599  00000-0  43225-3 0  9997,2 52105  53.2157 290.6883 0001169  96.2367 263.8758 15.08842455 92602,6917.873,95.437,540.547,538.929,0.0
52105.0,STARLINK-3706,PAYLOAD,2023-11-12 03:53:10,15.08841136,0.000117,53.2164,288.3134,91.5117,268.6009,0.00014628,2.041e-05,0.0,0 STARLINK-3706,1 52105U 22029T   23316.16192995  .00002041  00000-0  14628-3 0  9996,2 52105  53.2164 288.3134 0001170  91.5117 268.6009 15.08841136 92681,6917.877,95.437,540.551,538.933,0.0
52105.0,STARLINK-3706,PAYLOAD,2023-11-12 07:03:56,15.08844639,0.0001258,53.217,287.7178,92.8003,267.3133,0.00020404,2.961e-05,0.0,0 STARLINK-3706,1 52105U 22029T   23316.29440871  .00002961  00000-0  20404-3 0  9999,2 52105  53.2170 287.7178 0001258  92.8003 267.3133 15.08844639 92702,6917.866,95.437,540.601,538.861,0.0
52105.0,STARLINK-3706,PAYLOAD,2023-11-12 15:00:52,15.0883945,0.0001103,53.216,286.2281,87.1576,272.9542,0.00010676,1.412e-05,0.0,0 STARLINK-3706,1 52105U 22029T   23316.62561099  .00001412  00000-0  10676-3 0  9992,2 52105  53.2160 286.2281 0001103  87.1576 272.9542 15.08839450 92757,6917.882,95.438,540.51,538.984,0.0
52105.0,STARLINK-3706,PAYLOAD,2023-11-13 03:43:58,15.08838641,0.0001157,53.2173,283.8508,91.0061,269.1063,9.7448e-05,1.263e-05,0.0,0 STARLINK-3706,1 52105U 22029T   23317.15553274  .00001263  00000-0  97448-4 0  9994,2 52105  53.2173 283.8508 0001157  91.0061 269.1063 15.08838641 92834,6917.885,95.438,540.55,538.949,0.0
52105.0,STARLINK-3706,PAYLOAD,2023-11-13 06:54:43,15.08847963,0.0001393,53.216,283.2554,93.8714,266.2437,0.00020681,3.006e-05,0.0,0 STARLINK-3706,1 52105U 22029T   23317.28800888  .00003006  00000-0  20681-3 0  9995,2 52105  53.2160 283.2554 0001393  93.8714 266.2437 15.08847963 92854,6917.856,95.437,540.685,538.757,0.0
52105.0,STARLINK-3706,PAYLOAD,2023-11-14 03:34:44,15.0884189,0.0001538,53.2173,279.3889,86.8923,273.2245,8.4555e-05,1.058e-05,0.0,0 STARLINK-3706,1 52105U 22029T   23318.14913146  .00001058  00000-0  84555-4 0  9999,2 52105  53.2173 279.3889 0001538  86.8923 273.2245 15.08841890 92982,6917.875,95.437,540.804,538.676,0.0
52105.0,STARLINK-3706,PAYLOAD,2023-11-14 06:45:31,15.08845643,0.0001521,53.2176,278.7918,90.3834,269.7333,0.00011596,1.558e-05,0.0,0 STARLINK-3706,1 52105U 22029T   23318.28160970  .00001558  00000-0  11596-3 0  9992,2 52105  53.2176 278.7918 0001521  90.3834 269.7333 15.08845643 93006,6917.863,95.437,540.78,538.676,0.0
52105.0,STARLINK-3706,PAYLOAD,2023-11-15 06:36:17,15.08848794,0.0001472,53.2174,274.3302,99.1711,260.9448,0.00011609,1.561e-05,0.0,0 STARLINK-3706,1 52105U 22029T   23319.27520727  .00001561  00000-0  11609-3 0  9991,2 52105  53.2174 274.3302 0001472  99.1711 260.9448 15.08848794 93155,6917.854,95.437,540.737,538.7,0.0
52105.0,STARLINK-3706,PAYLOAD,2023-11-15 14:33:14,15.08839378,0.0001492,53.218,272.8444,98.5973,261.5188,-5.8875e-06,-3.82e-06,0.0,0 STARLINK-3706,1 52105U 22029T   23319.60641259 -.00000382  00000-0 -58875-5 0  9992,2 52105  53.2180 272.8444 0001492  98.5973 261.5188 15.08839378 93209,6917.882,95.438,540.779,538.715,0.0
52105.0,STARLINK-3706,PAYLOAD,2023-11-16 06:27:05,15.08843847,0.0001537,53.2179,269.8708,97.8606,262.2561,8.7944e-05,1.112e-05,0.0,0 STARLINK-3706,1 52105U 22029T   23320.26881176  .00001112  00000-0  87944-4 0  9998,2 52105  53.2179 269.8708 0001537  97.8606 262.2561 15.08843847 93301,6917.869,95.437,540.797,538.67,0.0
